CZ-2D R/B               
1 28738U 05024B   26096.77869553  .00057843  00000+0  63762-3 0  9995
2 28738  97.3566 113.0073 0001944 257.4372 102.6669 15.62932735144168
ALOS (DAICHI)           
1 28931U 06002A   26096.89012178  .00001564  00000+0  26971-3 0  9993
2 28931  98.1265  52.7145 0001254 116.0918 244.0417 14.69904020 77627
H-2A R/B                
1 28932U 06002B   26096.91134376  .00012137  00000+0  59439-3 0  9995
2 28932  98.2468 246.3848 0052467 144.9705 215.4996 15.17108531 98715
RESURS-DK 1             
1 29228U 06021A   26096.57033780  .00002695  00000+0  15871-3 0  9994
2 29228  69.9327 164.8991 0002150  29.6239 330.5049 15.12923301 91740
CZ-4B R/B               
1 29507U 06046C   26096.64202863  .00005273  00000+0  26496-3 0  9999
2 29507  97.5533 141.4726 0033528 167.9582 192.2461 15.17214245 64288
CZ-2C R/B               
1 31114U 07010B   26096.90599417  .00000181  00000+0  10235-3 0  9998
2 31114  98.4007 208.7745 0058476 211.1780 148.5924 14.20257385983722
COSMO-SKYMED 1          
1 31598U 07023A   26096.94522050  .00004735  00000+0  41917-3 0  9991
2 31598  97.8881 288.2082 0001730  96.1879 263.9540 14.96762184 19131
COSMOS 2428             
1 31792U 07029A   26096.85270591 -.00000063  00000+0 -80014-5 0  9998
2 31792  70.9418 144.2343 0009679 247.7723 112.2372 14.12948957968075
SL-16 R/B               
1 31793U 07029B   26096.79509449 -.00000160  00000+0 -58097-4 0  9992
2 31793  70.9736 113.3058 0002922 275.9853 256.9495 14.14843678969349
KORONAS-FOTON           
1 33504U 09003A   26096.89683402  .00016275  00000+0  35340-3 0  9998
2 33504  82.4292 246.5312 0011311  57.5110 302.7230 15.44160257950098
CZ-2C R/B               
1 37731U 11030B   26096.91667286  .00001517  00000+0  19699-3 0  9994
2 37731  97.8591  53.6260 0050953 258.2298 168.2266 14.81325455794270
H-2A R/B                
1 38341U 12025E   26096.90120060  .00002853  00000+0  25994-3 0  9999
2 38341  98.4775  66.2193 0043521 219.3629 140.4424 14.95369395752439
SHIJIAN-16 (SJ-16)      
1 39358U 13057A   26096.91838105  .00001688  00000+0  16710-3 0  9992
2 39358  74.9705 131.6473 0015422  39.5032 320.7278 14.92448635675714
SL-4 R/B                
1 39679U 14021B   26096.53840374  .00019410  00000+0  41423-3 0  9990
2 39679  51.6067 201.3187 0094006 204.6386 155.0093 15.40250466660560
ALOS-2                  
1 39766U 14029A   26096.98935685  .00000143  00000+0  26004-4 0  9996
2 39766  97.9199 195.1754 0001765  99.3218 260.8193 14.79458590641057
YAOGAN-29               
1 41038U 15069A   26096.93006763  .00000094  00000+0  18177-4 0  9994
2 41038  98.0099 125.4300 0000264 166.2909 193.8312 14.83027905560066
ASTRO-H (HITOMI)        
1 41337U 16012A   26096.92429425  .00003271  00000+0  18951-3 0  9997
2 41337  30.9984 174.3161 0009682 255.6402 104.3161 15.10195659556504
HXMT (HUIYAN)           
1 42758U 17034A   26096.74903851  .00008173  00000+0  40288-3 0  9994
2 42758  43.0138 220.6293 0030609  50.6931 309.6624 15.17855361486801
SAOCOM 1A               
1 43641U 18076A   26096.97992220  .00000366  00000+0  52555-4 0  9993
2 43641  97.8900 284.7535 0001388  85.3791 274.7581 14.82153136405557
H-2A R/B                
1 43682U 18084L   26096.89642704  .00023376  00000+0  53329-3 0  9992
2 43682  98.8682 320.3356 0023223 285.6636  74.2044 15.42638364410127
SAOCOM 1B               
1 46265U 20059A   26096.94366068  .00001217  00000+0  15947-3 0  9993
2 46265  97.8886 283.8136 0001451  85.2670 274.8709 14.82155902302932
CSS (TIANHE)            
1 48274U 21035A   26096.85904587  .00030288  00000+0  33911-3 0  9995
2 48274  41.4682  36.5777 0003893 145.5998 214.5094 15.62033215282017
COSMOS 2550             
1 48865U 21056A   26096.88261823 -.00000182  00000+0  29521-6 0  9992
2 48865  67.1413 315.6012 0008271 269.8278  90.1929 15.33838997267789
CZ-2C R/B               
1 52794U 22058K   26096.91006489  .00036156  00000+0  48562-3 0  9992
2 52794  50.1865 172.8879 0040951 321.7868  38.0203 15.56512734214529
CZ-2C R/B               
1 54039U 22132E   26096.92221719  .00060957  00000+0  62284-3 0  9998
2 54039  97.2955 101.1537 0015164 354.7580   5.3518 15.64715148194780
GSLV R/B                
1 54149U 22138AN  26096.66471173  .00002624  00000+0  22463-3 0  9990
2 54149  87.3845 156.9948 0023407  54.7995 305.5424 14.96962238188119
XRISM                   
1 57800U 23137A   26096.70331889  .00006347  00000+0  35639-3 0  9996
2 57800  31.0016 102.4211 0007797 319.9249  40.0814 15.11848625142039
ACS3                    
1 59588U 24077B   26096.85384334  .00026998  00000+0  20981-1 0  9990
2 59588  97.1931  31.6381 0073162  13.8553 346.4597 13.91084921 98118
HTV-X1                  
1 66174U 25241A   26096.95199301  .00006604  00000+0  21820-3 0  9999
2 66174  51.6369 296.8178 0007400 282.2250  77.7903 15.32569289 25278
SZ-21 MODULE            
1 66515U 25246C   26096.17762387  .00047296  00000+0  36860-3 0  9999
2 66515  41.4756  33.8728 0003704 235.4775 124.5718 15.70861135 22391

ISS (ZARYA)             
1 25544U 98067A   26096.84379163  .00007602  00000+0  14694-3 0  9995
2 25544  51.6327 293.1606 0006314 281.2813  78.7465 15.48808007560696
POISK                   
1 36086U 09060A   26096.84379163  .00007602  00000+0  14694-3 0  9993
2 36086  51.6327 293.1606 0006314 281.2813  78.7465 15.48808007560228
CSS (TIANHE)            
1 48274U 21035A   26096.85904587  .00030288  00000+0  33911-3 0  9995
2 48274  41.4682  36.5777 0003893 145.5998 214.5094 15.62033215282017
ISS (NAUKA)             
1 49044U 21066A   26096.84379163  .00007602  00000+0  14694-3 0  9991
2 49044  51.6327 293.1606 0006314 281.2813  78.7465 15.48808007560260
FREGAT DEB              
1 49271U 11037PF  26095.51225242  .00008541  00000+0  12423-1 0  9990
2 49271  51.6426 220.2066 0955047 120.8974 248.9327 12.40936816216024
CSS (WENTIAN)           
1 53239U 22085A   26096.85904587  .00030288  00000+0  33911-3 0  9998
2 53239  41.4682  36.5777 0003893 145.5998 214.5094 15.62033215281158
CSS (MENGTIAN)          
1 54216U 22143A   26096.85904587  .00030288  00000+0  33911-3 0  9999
2 54216  41.4682  36.5777 0003893 145.5998 214.5094 15.62033215281154
TIANZHOU-9              
1 64786U 25149A   26096.85904587  .00030288  00000+0  33911-3 0  9991
2 64786  41.4682  36.5777 0003893 145.5998 214.5094 15.62033215281157
PROGRESS-MS 32          
1 65586U 25204A   26096.84379163  .00007602  00000+0  14694-3 0  9998
2 65586  51.6327 293.1606 0006314 281.2813  78.7465 15.48808007554509
YOTSUBA-KULOVER         
1 65941U 98067XN  26096.69421974  .00786154  30587-3  13350-2 0  9991
2 65941  51.6142 270.2399 0008976 281.6804  78.3199 16.01966477 27954
BOTAN                   
1 65943U 98067XQ  26096.65046666  .00675338  21640-3  12905-2 0  9996
2 65943  51.6173 270.7288 0008809 277.4180  82.5829 15.99928549 27947
HRC MONOBLOCK CAMERA    
1 66052U 98067XR  26096.69147014  .00067978  00000+0  66599-3 0  9998
2 66052  51.6271 283.8871 0003812 235.8799 124.1835 15.65455485 26771
HTV-X1                  
1 66174U 25241A   26096.95199301  .00006604  00000+0  21820-3 0  9999
2 66174  51.6369 296.8178 0007400 282.2250  77.7903 15.32569289 25278
SZ-21 MODULE            
1 66515U 25246C   26096.17762387  .00047296  00000+0  36860-3 0  9999
2 66515  41.4756  33.8728 0003704 235.4775 124.5718 15.70861135 22391
SHENZHOU-22             
1 66645U 25272A   26096.85904587  .00030288  00000+0  33911-3 0  9994
2 66645  41.4682  36.5777 0003893 145.5998 214.5094 15.62033215281153
SOYUZ-MS 28             
1 66664U 25275A   26096.84379163  .00007602  00000+0  14694-3 0  9994
2 66664  51.6327 293.1606 0006314 281.2813  78.7465 15.48808007560504
DUPLEX                  
1 66906U 98067XS  26096.82414132  .00032786  00000+0  43136-3 0  9990
2 66906  51.6284 288.5303 0003474 248.4030 111.6593 15.58152788 19515
ISS OBJECT XT           
1 66907U 98067XT  26096.76188073  .00329522  00000+0  15517-2 0  9994
2 66907  51.6219 281.3097 0007844 264.2639  95.7469 15.81604934 19606
ISS OBJECT XU           
1 66908U 98067XU  26096.88261837  .00338417  00000+0  15560-2 0  9999
2 66908  51.6222 280.6111 0007851 263.6520  96.3588 15.82094605 19620
SILVERSAT               
1 66909U 98067XV  26096.79926964  .00553785  12879-3  17854-2 0  9995
2 66909  51.6175 279.2790 0009832 271.3466  88.6413 15.90235811 19638
ISS OBJECT XW           
1 66910U 98067XW  26096.77934324  .00276172  00000+0  14525-2 0  9997
2 66910  51.6194 281.4190 0007870 259.1305 100.8811 15.79334443 19600
ISS OBJECT XX           
1 66911U 98067XX  26096.68896384  .01368134  10998-2  20748-2 0  9996
2 66911  51.6129 277.7375 0012439 279.0262  80.9342 16.03960979 19639
ISS OBJECT XY           
1 66912U 98067XY  26096.77647198  .00141515  00000+0  11337-2 0  9999
2 66912  51.6250 284.4424 0005347 256.7628 103.2773 15.70068186 19553
KNACKSAT-2              
1 67683U 98067XZ  26096.78336249  .00045246  00000+0  68034-3 0  9999
2 67683  51.6313 292.0095 0010730 290.3206  69.6632 15.54329078  9152
CORAL                   
1 67684U 98067YA  26096.56051478  .00111135  00000+0  13546-2 0  9992
2 67684  51.6283 292.0210 0013861 280.0106  79.9323 15.59527751  9133
GXIBA-1                 
1 67685U 98067YB  26096.83418699  .00052048  00000+0  76147-3 0  9999
2 67685  51.6301 291.5990 0012671 287.2064  72.7539 15.54990836  9160
UITMSAT-2               
1 67686U 98067YC  26096.81336405  .00071267  00000+0  99387-3 0  9997
2 67686  51.6306 291.4622 0009764 262.3024  97.6859 15.56195454  9162
HMU-SAT2                
1 67687U 98067YD  26096.84065925  .00048613  00000+0  72061-3 0  9996
2 67687  51.6308 291.6455 0009208 264.8706  95.1234 15.54705790  9087
LEOPARD                 
1 67688U 98067YE  26096.56589899  .00063290  00000+0  90359-3 0  9995
2 67688  51.6301 292.8109 0009406 262.0799  97.9124 15.55613907  9045
